{"type": "FeatureCollection", "features": [{"type": "Feature", "properties": {"norad_id": 2807, "name": "OPS 7218 (TRANSIT 16)", "group": "nnss", "lat": -55.227490321846176, "lon": -6.871811976740468, "alt_km": 1088.4901810525607, "timestamp": "2025-12-25T07:41:09.991534+00:00", "meta": {"OBJECT_NAME": "OPS 7218 (TRANSIT 16)", "OBJECT_ID": "1967-048A", "EPOCH": "2025-12-24T23:22:05.234880", "MEAN_MOTION": 13.50724747, "ECCENTRICITY": 0.00221485, "INCLINATION": 89.6734, "RA_OF_ASC_NODE": 353.6103, "ARG_OF_PERICENTER": 81.5285, "MEAN_ANOMALY": 339.1972, "EPHEMERIS_TYPE": 0, "CLASSIFICATION_TYPE": "U", "NORAD_CAT_ID": 2807, "ELEMENT_SET_NO": 999, "REV_AT_EPOCH": 88441, "BSTAR": 0.00013774229, "MEAN_MOTION_DOT": 9.9e-07, "MEAN_MOTION_DDOT": 0}, "tle": {"line1": "1 02807U 67048A   25358.97367170  .00000099  00000+0  13774-3 0  9997", "line2": "2 02807  89.6734 353.6103 0022148  81.5285 339.1972 13.50724747884412"}}, "geometry": {"type": "Point", "coordinates": [-6.871811976740468, -55.227490321846176]}}, {"type": "Feature", "properties": {"norad_id": 2965, "name": "OPS 4947 (TRANSIT 17)", "group": "nnss", "lat": 47.33499425820481, "lon": -157.34024245650974, "alt_km": 1040.2858905730109, "timestamp": "2025-12-25T07:41:09.991557+00:00", "meta": {"OBJECT_NAME": "OPS 4947 (TRANSIT 17)", "OBJECT_ID": "1967-092A", "EPOCH": "2025-12-24T15:39:13.887648", "MEAN_MOTION": 13.53456658, "ECCENTRICITY": 0.00470847, "INCLINATION": 89.2486, "RA_OF_ASC_NODE": 23.5265, "ARG_OF_PERICENTER": 199.1608, "MEAN_ANOMALY": 281.0103, "EPHEMERIS_TYPE": 0, "CLASSIFICATION_TYPE": "U", "NORAD_CAT_ID": 2965, "ELEMENT_SET_NO": 999, "REV_AT_EPOCH": 87258, "BSTAR": 0.00018040166, "MEAN_MOTION_DOT": 1.33e-06, "MEAN_MOTION_DDOT": 0}, "tle": {"line1": "1 02965U 67092A   25358.65224407  .00000133  00000+0  18040-3 0  9991", "line2": "2 02965  89.2486  23.5265 0047084 199.1608 281.0103 13.53456658872582"}}, "geometry": {"type": "Point", "coordinates": [-157.34024245650974, 47.33499425820481]}}, {"type": "Feature", "properties": {"norad_id": 3133, "name": "OPS 7034 (TRANSIT 18)", "group": "nnss", "lat": -17.724397812532345, "lon": 93.66576251354175, "alt_km": 1047.1987941825219, "timestamp": "2025-12-25T07:41:09.991570+00:00", "meta": {"OBJECT_NAME": "OPS 7034 (TRANSIT 18)", "OBJECT_ID": "1968-012A", "EPOCH": "2025-12-24T18:32:58.948800", "MEAN_MOTION": 13.51568466, "ECCENTRICITY": 0.00749525, "INCLINATION": 90.0285, "RA_OF_ASC_NODE": 273.6733, "ARG_OF_PERICENTER": 134.5685, "MEAN_ANOMALY": 280.6432, "EPHEMERIS_TYPE": 0, "CLASSIFICATION_TYPE": "U", "NORAD_CAT_ID": 3133, "ELEMENT_SET_NO": 999, "REV_AT_EPOCH": 57081, "BSTAR": 0.00020607485, "MEAN_MOTION_DOT": 1.47e-06, "MEAN_MOTION_DDOT": 0}, "tle": {"line1": "1 03133U 68012A   25358.77290450  .00000147  00000+0  20607-3 0  9993", "line2": "2 03133  90.0285 273.6733 0074952 134.5685 280.6432 13.51568466570817"}}, "geometry": {"type": "Point", "coordinates": [93.66576251354175, -17.724397812532345]}}, {"type": "Feature", "properties": {"norad_id": 4507, "name": "NNSS 19 (TRANSIT 19)", "group": "nnss", "lat": 24.871956608408944, "lon": 54.544529824005636, "alt_km": 1089.9915243062696, "timestamp": "2025-12-25T07:41:09.991582+00:00", "meta": {"OBJECT_NAME": "NNSS 19 (TRANSIT 19)", "OBJECT_ID": "1970-067A", "EPOCH": "2025-12-24T16:41:08.378304", "MEAN_MOTION": 13.51317454, "ECCENTRICITY": 0.0170208, "INCLINATION": 90.0048, "RA_OF_ASC_NODE": 234.542, "ARG_OF_PERICENTER": 258.3836, "MEAN_ANOMALY": 99.8168, "EPHEMERIS_TYPE": 0, "CLASSIFICATION_TYPE": "U", "NORAD_CAT_ID": 4507, "ELEMENT_SET_NO": 999, "REV_AT_EPOCH": 72383, "BSTAR": 0.00013259382, "MEAN_MOTION_DOT": 1.02e-06, "MEAN_MOTION_DDOT": 0}, "tle": {"line1": "1 04507U 70067A   25358.69523586  .00000102  00000+0  13259-3 0  9998", "line2": "2 04507  90.0048 234.5420 0170208 258.3836  99.8168 13.51317454723830"}}, "geometry": {"type": "Point", "coordinates": [54.544529824005636, 24.871956608408944]}}, {"type": "Feature", "properties": {"norad_id": 6909, "name": "NNSS 20 (TRANSIT 20)", "group": "nnss", "lat": 60.1384354421908, "lon": -104.88330367323077, "alt_km": 879.6996957664342, "timestamp": "2025-12-25T07:41:09.991607+00:00", "meta": {"OBJECT_NAME": "NNSS 20 (TRANSIT 20)", "OBJECT_ID": "1973-081A", "EPOCH": "2025-12-24T15:38:35.406816", "MEAN_MOTION": 13.71440507, "ECCENTRICITY": 0.01561702, "INCLINATION": 89.856, "RA_OF_ASC_NODE": 254.8758, "ARG_OF_PERICENTER": 43.0124, "MEAN_ANOMALY": 318.3123, "EPHEMERIS_TYPE": 0, "CLASSIFICATION_TYPE": "U", "NORAD_CAT_ID": 6909, "ELEMENT_SET_NO": 999, "REV_AT_EPOCH": 80524, "BSTAR": 0.0002803412, "MEAN_MOTION_DOT": 2.86e-06, "MEAN_MOTION_DDOT": 0}, "tle": {"line1": "1 06909U 73081A   25358.65179869  .00000286  00000+0  28034-3 0  9992", "line2": "2 06909  89.8560 254.8758 0156170  43.0124 318.3123 13.71440507805247"}}, "geometry": {"type": "Point", "coordinates": [-104.88330367323077, 60.1384354421908]}}, {"type": "Feature", "properties": {"norad_id": 10457, "name": "TRANSAT", "group": "nnss", "lat": 54.324038110568594, "lon": 78.64260564504264, "alt_km": 1074.2551955814606, "timestamp": "2025-12-25T07:41:09.991620+00:00", "meta": {"OBJECT_NAME": "TRANSAT", "OBJECT_ID": "1977-106A", "EPOCH": "2025-12-24T23:22:13.339200", "MEAN_MOTION": 13.48945461, "ECCENTRICITY": 0.00265054, "INCLINATION": 89.6475, "RA_OF_ASC_NODE": 78.1636, "ARG_OF_PERICENTER": 154.8133, "MEAN_ANOMALY": 18.2518, "EPHEMERIS_TYPE": 0, "CLASSIFICATION_TYPE": "U", "NORAD_CAT_ID": 10457, "ELEMENT_SET_NO": 999, "REV_AT_EPOCH": 36908, "BSTAR": 0.00013253967, "MEAN_MOTION_DOT": 9.4e-07, "MEAN_MOTION_DDOT": 0}, "tle": {"line1": "1 10457U 77106A   25358.97376550  .00000094  00000+0  13254-3 0  9993", "line2": "2 10457  89.6475  78.1636 0026505 154.8133  18.2518 13.48945461369088"}}, "geometry": {"type": "Point", "coordinates": [78.64260564504264, 54.324038110568594]}}, {"type": "Feature", "properties": {"norad_id": 12458, "name": "NOVA 1", "group": "nnss", "lat": -55.543326271341655, "lon": -88.5775739678994, "alt_km": 1190.6648898926614, "timestamp": "2025-12-25T07:41:09.991632+00:00", "meta": {"OBJECT_NAME": "NOVA 1", "OBJECT_ID": "1981-044A", "EPOCH": "2025-12-24T20:15:02.808000", "MEAN_MOTION": 13.23279733, "ECCENTRICITY": 0.00157476, "INCLINATION": 89.8525, "RA_OF_ASC_NODE": 91.2141, "ARG_OF_PERICENTER": 74.27, "MEAN_ANOMALY": 52.6435, "EPHEMERIS_TYPE": 0, "CLASSIFICATION_TYPE": "U", "NORAD_CAT_ID": 12458, "ELEMENT_SET_NO": 999, "REV_AT_EPOCH": 15346, "BSTAR": 0.00017985752, "MEAN_MOTION_DOT": 8.5e-07, "MEAN_MOTION_DDOT": 0}, "tle": {"line1": "1 12458U 81044A   25358.84378250  .00000085  00000+0  17986-3 0  9993", "line2": "2 12458  89.8525  91.2141 0015747  74.2700  52.6435 13.23279733153465"}}, "geometry": {"type": "Point", "coordinates": [-88.5775739678994, -55.543326271341655]}}, {"type": "Feature", "properties": {"norad_id": 15362, "name": "NOVA 3", "group": "nnss", "lat": 82.35113003514195, "lon": -98.41059865365804, "alt_km": 1187.1871243445003, "timestamp": "2025-12-25T07:41:09.991643+00:00", "meta": {"OBJECT_NAME": "NOVA 3", "OBJECT_ID": "1984-110A", "EPOCH": "2025-12-24T17:15:40.667616", "MEAN_MOTION": 13.23046037, "ECCENTRICITY": 0.0029874, "INCLINATION": 90.1217, "RA_OF_ASC_NODE": 80.6756, "ARG_OF_PERICENTER": 297.3866, "MEAN_ANOMALY": 179.0949, "EPHEMERIS_TYPE": 0, "CLASSIFICATION_TYPE": "U", "NORAD_CAT_ID": 15362, "ELEMENT_SET_NO": 999, "REV_AT_EPOCH": 98857, "BSTAR": 0.00014710311, "MEAN_MOTION_DOT": 7e-07, "MEAN_MOTION_DDOT": 0}, "tle": {"line1": "1 15362U 84110A   25358.71922069  .00000070  00000+0  14710-3 0  9992", "line2": "2 15362  90.1217  80.6756 0029874 297.3866 179.0949 13.23046037988577"}}, "geometry": {"type": "Point", "coordinates": [-98.41059865365804, 82.35113003514195]}}, {"type": "Feature", "properties": {"norad_id": 15935, "name": "OSCAR 30", "group": "nnss", "lat": 47.68340467999568, "lon": 99.87104522922749, "alt_km": 993.007331363221, "timestamp": "2025-12-25T07:41:09.991653+00:00", "meta": {"OBJECT_NAME": "OSCAR 30", "OBJECT_ID": "1985-066A", "EPOCH": "2025-12-24T17:39:41.831712", "MEAN_MOTION": 13.36080379, "ECCENTRICITY": 0.01688863, "INCLINATION": 90.1653, "RA_OF_ASC_NODE": 100.0432, "ARG_OF_PERICENTER": 50.3743, "MEAN_ANOMALY": 68.3865, "EPHEMERIS_TYPE": 0, "CLASSIFICATION_TYPE": "U", "NORAD_CAT_ID": 15935, "ELEMENT_SET_NO": 999, "REV_AT_EPOCH": 96613, "BSTAR": 0.00021298167, "MEAN_MOTION_DOT": 1.28e-06, "MEAN_MOTION_DDOT": 0}, "tle": {"line1": "1 15935U 85066A   25358.73590083  .00000128  00000+0  21298-3 0  9991", "line2": "2 15935  90.1653 100.0432 0168886  50.3743  68.3865 13.36080379966139"}}, "geometry": {"type": "Point", "coordinates": [99.87104522922749, 47.68340467999568]}}, {"type": "Feature", "properties": {"norad_id": 15936, "name": "OSCAR 24", "group": "nnss", "lat": 61.54337505369667, "lon": -87.1414274394451, "alt_km": 1059.3210989365134, "timestamp": "2025-12-25T07:41:09.991664+00:00", "meta": {"OBJECT_NAME": "OSCAR 24", "OBJECT_ID": "1985-066B", "EPOCH": "2025-12-24T20:54:20.922336", "MEAN_MOTION": 13.35937478, "ECCENTRICITY": 0.01700665, "INCLINATION": 90.1791, "RA_OF_ASC_NODE": 92.52, "ARG_OF_PERICENTER": 56.4546, "MEAN_ANOMALY": 61.219, "EPHEMERIS_TYPE": 0, "CLASSIFICATION_TYPE": "U", "NORAD_CAT_ID": 15936, "ELEMENT_SET_NO": 999, "REV_AT_EPOCH": 96805, "BSTAR": 0.00015449613, "MEAN_MOTION_DOT": 9.5e-07, "MEAN_MOTION_DDOT": 0}, "tle": {"line1": "1 15936U 85066B   25358.87107549  .00000095  00000+0  15450-3 0  9994", "line2": "2 15936  90.1791  92.5200 0170066  56.4546  61.2190 13.35937478968058"}}, "geometry": {"type": "Point", "coordinates": [-87.1414274394451, 61.54337505369667]}}]}